{"fetched_at":"2026-03-29T02:12:04Z","count":15717,"tles":[{"name":"STARLINK-35514","line1":"1 66535U 25265V   26087.54602653  .00021290  00000+0  78067-3 0  9993","line2":"2 66535  43.0043 171.7540 0000817 302.7254  57.3519 15.27591935 19990","category":"Starlink"}]}