{
  "norad_id": 66535,
  "name": "STARLINK-35514",
  "history": [
    {
      "epoch": "2026-03-28T13:06:16.692192Z",
      "apogee_km": 483.57391457303584,
      "perigee_km": 482.4528026044436,
      "latitude_deg": 1.0582175767395333e-05,
      "longitude_deg": 149.21953638894854,
      "height_km": 482.486910978473,
      "semi_major_axis_km": 6861.150358588739,
      "eccentricity": 8.17e-05,
      "inclination_deg": 43.0043,
      "raan_deg": 171.754,
      "arg_perigee_deg": 302.7254,
      "mean_anomaly_deg": 57.3519,
      "mean_motion_rev_day": 15.27591935
    }
  ]
}